{
  "type": "FeatureCollection",
  "features": [
    {
      "type": "Feature",
      "geometry": {
        "type": "MultiPolygon",
        "coordinates": [
          [
            [
              [
                -112.07742,
                33.45673
              ],
              [
                -112.07042,
                33.45673
              ],
              [
                -112.07042,
                33.46073
              ],
              [
                -112.07742,
                33.46073
              ],
              [
                -112.07742,
                33.45673
              ]
            ]
          ]
        ]
      },
      "properties": {
        "GEOID": "04013910001",
        "RPL_THEMES": 0.61,
        "anchor_stop_id": "SQ-101"
      }
    },
    {
      "type": "Feature",
      "geometry": {
        "type": "MultiPolygon",
        "coordinates": [
          [
            [
              [
                -112.07733,
                33.46312
              ],
              [
                -112.07033,
                33.46312
              ],
              [
                -112.07033,
                33.46712
              ],
              [
                -112.07733,
                33.46712
              ],
              [
                -112.07733,
                33.46312
              ]
            ]
          ]
        ]
      },
      "properties": {
        "GEOID": "04013910002",
        "RPL_THEMES": 0.72,
        "anchor_stop_id": "SQ-102"
      }
    },
    {
      "type": "Feature",
      "geometry": {
        "type": "MultiPolygon",
        "coordinates": [
          [
            [
              [
                -112.07719,
                33.47871
              ],
              [
                -112.07019,
                33.47871
              ],
              [
                -112.07019,
                33.48271
              ],
              [
                -112.07719,
                33.48271
              ],
              [
                -112.07719,
                33.47871
              ]
            ]
          ]
        ]
      },
      "properties": {
        "GEOID": "04013910003",
        "RPL_THEMES": 0.86,
        "anchor_stop_id": "SQ-103"
      }
    },
    {
      "type": "Feature",
      "geometry": {
        "type": "MultiPolygon",
        "coordinates": [
          [
            [
              [
                -112.07703,
                33.48554
              ],
              [
                -112.07003,
                33.48554
              ],
              [
                -112.07003,
                33.48954
              ],
              [
                -112.07703,
                33.48954
              ],
              [
                -112.07703,
                33.48554
              ]
            ]
          ]
        ]
      },
      "properties": {
        "GEOID": "04013910004",
        "RPL_THEMES": 0.91,
        "anchor_stop_id": "SQ-104"
      }
    },
    {
      "type": "Feature",
      "geometry": {
        "type": "MultiPolygon",
        "coordinates": [
          [
            [
              [
                -112.07682,
                33.49305
              ],
              [
                -112.06982,
                33.49305
              ],
              [
                -112.06982,
                33.49705
              ],
              [
                -112.07682,
                33.49705
              ],
              [
                -112.07682,
                33.49305
              ]
            ]
          ]
        ]
      },
      "properties": {
        "GEOID": "04013910005",
        "RPL_THEMES": 0.58,
        "anchor_stop_id": "SQ-105"
      }
    },
    {
      "type": "Feature",
      "geometry": {
        "type": "MultiPolygon",
        "coordinates": [
          [
            [
              [
                -112.0766,
                33.49952
              ],
              [
                -112.0696,
                33.49952
              ],
              [
                -112.0696,
                33.50352
              ],
              [
                -112.0766,
                33.50352
              ],
              [
                -112.0766,
                33.49952
              ]
            ]
          ]
        ]
      },
      "properties": {
        "GEOID": "04013910006",
        "RPL_THEMES": 0.94,
        "anchor_stop_id": "SQ-106"
      }
    },
    {
      "type": "Feature",
      "geometry": {
        "type": "MultiPolygon",
        "coordinates": [
          [
            [
              [
                -112.07636,
                33.50382
              ],
              [
                -112.06936,
                33.50382
              ],
              [
                -112.06936,
                33.50782
              ],
              [
                -112.07636,
                33.50782
              ],
              [
                -112.07636,
                33.50382
              ]
            ]
          ]
        ]
      },
      "properties": {
        "GEOID": "04013910007",
        "RPL_THEMES": 0.67,
        "anchor_stop_id": "SQ-107"
      }
    },
    {
      "type": "Feature",
      "geometry": {
        "type": "MultiPolygon",
        "coordinates": [
          [
            [
              [
                -112.08642,
                33.44942
              ],
              [
                -112.07942,
                33.44942
              ],
              [
                -112.07942,
                33.45342
              ],
              [
                -112.08642,
                33.45342
              ],
              [
                -112.08642,
                33.44942
              ]
            ]
          ]
        ]
      },
      "properties": {
        "GEOID": "04013910008",
        "RPL_THEMES": 0.82,
        "anchor_stop_id": "SQ-108"
      }
    },
    {
      "type": "Feature",
      "geometry": {
        "type": "MultiPolygon",
        "coordinates": [
          [
            [
              [
                -112.08617,
                33.45695
              ],
              [
                -112.07917,
                33.45695
              ],
              [
                -112.07917,
                33.46095
              ],
              [
                -112.08617,
                33.46095
              ],
              [
                -112.08617,
                33.45695
              ]
            ]
          ]
        ]
      },
      "properties": {
        "GEOID": "04013910009",
        "RPL_THEMES": 0.96,
        "anchor_stop_id": "SQ-109"
      }
    },
    {
      "type": "Feature",
      "geometry": {
        "type": "MultiPolygon",
        "coordinates": [
          [
            [
              [
                -112.08592,
                33.46333
              ],
              [
                -112.07892,
                33.46333
              ],
              [
                -112.07892,
                33.46733
              ],
              [
                -112.08592,
                33.46733
              ],
              [
                -112.08592,
                33.46333
              ]
            ]
          ]
        ]
      },
      "properties": {
        "GEOID": "04013910010",
        "RPL_THEMES": 0.69,
        "anchor_stop_id": "SQ-110"
      }
    },
    {
      "type": "Feature",
      "geometry": {
        "type": "MultiPolygon",
        "coordinates": [
          [
            [
              [
                -112.08548,
                33.47883
              ],
              [
                -112.07848,
                33.47883
              ],
              [
                -112.07848,
                33.48283
              ],
              [
                -112.08548,
                33.48283
              ],
              [
                -112.08548,
                33.47883
              ]
            ]
          ]
        ]
      },
      "properties": {
        "GEOID": "04013910011",
        "RPL_THEMES": 0.88,
        "anchor_stop_id": "SQ-111"
      }
    },
    {
      "type": "Feature",
      "geometry": {
        "type": "MultiPolygon",
        "coordinates": [
          [
            [
              [
                -112.08521,
                33.48571
              ],
              [
                -112.07821,
                33.48571
              ],
              [
                -112.07821,
                33.48971
              ],
              [
                -112.08521,
                33.48971
              ],
              [
                -112.08521,
                33.48571
              ]
            ]
          ]
        ]
      },
      "properties": {
        "GEOID": "04013910012",
        "RPL_THEMES": 0.92,
        "anchor_stop_id": "SQ-112"
      }
    },
    {
      "type": "Feature",
      "geometry": {
        "type": "MultiPolygon",
        "coordinates": [
          [
            [
              [
                -112.08493,
                33.49316
              ],
              [
                -112.07793,
                33.49316
              ],
              [
                -112.07793,
                33.49716
              ],
              [
                -112.08493,
                33.49716
              ],
              [
                -112.08493,
                33.49316
              ]
            ]
          ]
        ]
      },
      "properties": {
        "GEOID": "04013910013",
        "RPL_THEMES": 0.74,
        "anchor_stop_id": "SQ-113"
      }
    },
    {
      "type": "Feature",
      "geometry": {
        "type": "MultiPolygon",
        "coordinates": [
          [
            [
              [
                -112.08459,
                33.50714
              ],
              [
                -112.07759,
                33.50714
              ],
              [
                -112.07759,
                33.51114
              ],
              [
                -112.08459,
                33.51114
              ],
              [
                -112.08459,
                33.50714
              ]
            ]
          ]
        ]
      },
      "properties": {
        "GEOID": "04013910014",
        "RPL_THEMES": 0.54,
        "anchor_stop_id": "SQ-114"
      }
    },
    {
      "type": "Feature",
      "geometry": {
        "type": "MultiPolygon",
        "coordinates": [
          [
            [
              [
                -112.07942,
                33.44451
              ],
              [
                -112.07242,
                33.44451
              ],
              [
                -112.07242,
                33.44851
              ],
              [
                -112.07942,
                33.44851
              ],
              [
                -112.07942,
                33.44451
              ]
            ]
          ]
        ]
      },
      "properties": {
        "GEOID": "04013910015",
        "RPL_THEMES": 0.63,
        "anchor_stop_id": "SQ-115"
      }
    },
    {
      "type": "Feature",
      "geometry": {
        "type": "MultiPolygon",
        "coordinates": [
          [
            [
              [
                -112.0791,
                33.45212
              ],
              [
                -112.0721,
                33.45212
              ],
              [
                -112.0721,
                33.45612
              ],
              [
                -112.0791,
                33.45612
              ],
              [
                -112.0791,
                33.45212
              ]
            ]
          ]
        ]
      },
      "properties": {
        "GEOID": "04013910016",
        "RPL_THEMES": 0.98,
        "anchor_stop_id": "SQ-116"
      }
    }
  ]
}
